IRIDIUM 57              
1 25273U 98019B   24187.83073608  .00000552  00000+0  18599-3 0  9999
2 25273  86.3961 290.3116 0002202  94.9781 265.1667 14.35271343375090
IRIDIUM 63              
1 25286U 98021B   24187.84724062  .00000549  00000+0  18285-3 0  9992
2 25286  86.3984 227.2050 0002175  89.2591 270.8855 14.35821810374406
IRIDIUM 69              
1 25319U 98026A   24187.86085168  .00000672  00000+0  20690-3 0  9993
2 25319  86.3971 241.5287 0004627  89.5425 270.6304 14.40066384373200
IRIDIUM 71              
1 25320U 98026B   24187.85684688  .00000614  00000+0  18727-3 0  9990
2 25320  86.3973 236.2879 0003935 120.0266 240.1324 14.40375927373971
IRIDIUM 73              
1 25344U 98032C   24187.92625962  .00000860  00000+0  21408-3 0  9994
2 25344  86.4439 193.6794 0002985  89.4213 270.7334 14.50610716380349
IRIDIUM 82              
1 25467U 98051A   24187.75701249  .00020050  00000+0  98630-3 0  9999
2 25467  86.3757 276.9577 0126843 151.6846 209.1366 15.10982907371291
